"Iapetus:Saturn VIII" "Sol/Saturn"
{
	Texture "iapetus.*"
        Radius     718

	CustomOrbit "iapetus"

	# Overridden by CustomOrbit
	# EllipticalOrbit
	# {
	#    Period         79.330183
	#    SemiMajorAxis  3561300
	#    Eccentricity   0.0283
	#    Inclination    7.52
	#    MeanAnomaly    245
	# }

	BodyFrame { EquatorJ2000 {} }
	CustomRotation "iau-iapetus"

	# Overriden by CustomRotation
	# UniformRotation
	# {
	#    Inclination    14.97
	#    AscendingNode  48.16
	#    MeridianAngle 350.20
	# }

	Albedo         0.2
}

"Phoebe:Saturn IX" "Sol/Saturn"
{
	Mesh "phoebe.cmod"
	Texture "phoebe.*"
	Radius     110

	EllipticalOrbit
	{
	Epoch           2453168.3159722 # 2004 June 11 19:35 (Cassini encounter)
	Period          548.21          # mean
	SemiMajorAxis   12915512.0      # at epoch
	Eccentricity      0.152924      # at epoch
	Inclination     151.668210      # at epoch
	AscendingNode    14.381449      # at epoch
	ArgOfPericenter 281.103195      # at epoch
	MeanAnomaly      31.776215      # at epoch
	}
    
	BodyFrame { EquatorJ2000 {} }

	# Not used; IAU elements appear to be based on pre-Cassini
	# information.
	# CustomRotation "iau-phoebe"

	UniformRotation
	{
	    Period          9.2735 # Bauer et al, Astrophysical Journal 2004; 610(2): L57-L60 
	    Inclination    12.1    # Porco et al, Science 2005; 307: 1237-42 
	    AscendingNode  86.6    # Porco et al, Science 2005; 307: 1237-42 
	    MeridianAngle  95      # approximate, from encounter images 
	}

	Albedo         0.05
}


"Uranus" "Sol"
{
	Texture "uranus.*"
	Color [ 0.75 0.85 1.0 ]
	HazeColor [ 0.5 0.8 1.0 ]
	HazeDensity 0.2
	Radius 25559 # equatorial
	Oblateness 0.0229

	CustomOrbit "vsop87-uranus"

	# Overridden by CustomOrbit
	# EllipticalOrbit
	# {
	#    Period           84.0139
	#    SemiMajorAxis    19.1913
	#    Eccentricity      0.0472
	#    Inclination       0.7699
	#    AscendingNode     74.230
	#    LongOfPericenter 170.964
        #    MeanLongitude    313.232
	# }

	Atmosphere {
		Height 130
		Lower [ 0.75 0.85 1.0 ]
		Upper [ 0.5 0.8 0.9 ]
		Sky [ 0.6 0.7 0.7 ]

	}

	BodyFrame { EclipticJ2000 {} }
	UniformRotation
	{
	    Period         17.24  # System III (magnetic field)
	    Inclination    97.722
	    AscendingNode 167.647
	    MeridianAngle 331.13  # correct System III prime meridian
	}

	Albedo            0.66

	Rings {
		Inner  41837
		Outer  51179
		Texture "uranus-rings.png"
	}
}


"Miranda:Uranus V" "Sol/Uranus"
{
	Texture "miranda.*"
	Radius   235.8

	CustomOrbit "miranda"

	# Overridden by CustomOrbit
	# EllipticalOrbit
	# {
	#    Period         1.413
	#    SemiMajorAxis  129800
	#    Eccentricity   0.0027
	#    Inclination    4.22
	#    MeanAnomaly    120
	# }

	BodyFrame { EquatorJ2000 {} }
	CustomRotation "iau-miranda"

	# Overriden by CustomRotation
	# UniformRotation
	# {
	#    Period         33.92350159 # enforce sync rotation
	#    Inclination    74.92
	#    AscendingNode 167.43
	#    MeridianAngle 149.30
	# }

	Albedo         0.32
}

AltSurface "limit of knowledge" "Sol/Uranus/Miranda"
{
	Texture "miranda.*"
	OverlayTexture "miranda-lok-mask.png"
}

"Ariel:Uranus I" "Sol/Uranus"
{
	Texture "ariel.*"
	Radius   578.9

	CustomOrbit "ariel"

	# Overridden by CustomOrbit
	# EllipticalOrbit
	# {
	#    Period         2.520
	#    SemiMajorAxis  191200
	#    Eccentricity   0.0034
	#    Inclination    0.31
	#    MeanAnomaly    56
	# }

	BodyFrame { EquatorJ2000 {} }
	CustomRotation "iau-ariel"

	# Overriden by CustomRotation
	# UniformRotation
	# {
	#    Period         60.48909292 # enforce sync rotation
	#    Inclination    74.90
	#    AscendingNode 167.43
	#    MeridianAngle  23.78
	# }

	Albedo         0.39
}

AltSurface "limit of knowledge" "Sol/Uranus/Ariel"
{
	Texture "ariel.*"
	OverlayTexture "ariel-lok-mask.png"
}

"Umbriel:Uranus II" "Sol/Uranus"
{
	Texture "umbriel.*"
	Radius   584.7

	CustomOrbit "umbriel"

	# Overridden by CustomOrbit
	# EllipticalOrbit
	# {
	#    Period         4.144
	#    SemiMajorAxis  266000
	#    Eccentricity   0.0050
	#    Inclination    0.36
	#    MeanAnomaly    280
	# }

	BodyFrame { EquatorJ2000 {} }
	CustomRotation "iau-umbriel"

	# Overriden by CustomRotation
	# UniformRotation
	# {
	#    Period         99.46022991 # enforce sync rotation
	#    Inclination    74.90
	#    AscendingNode 167.43
	#    MeridianAngle  71.95
	# }

	Albedo         0.21
}

AltSurface "limit of knowledge" "Sol/Uranus/Umbriel"
{
	Texture "umbriel.*"
	OverlayTexture "umbriel-lok-mask.png"
}

"Titania:Uranus III" "Sol/Uranus"
{
	Texture "titania.*"
	Radius   788.9

	CustomOrbit "titania"

	# Overridden by CustomOrbit
	# EllipticalOrbit
	# {
	#    Period         8.706
	#    SemiMajorAxis  435800
	#    Eccentricity   0.0022
	#    Inclination    0.10
	#    MeanAnomaly    30
	# }

	BodyFrame { EquatorJ2000 {} }
	CustomRotation "iau-titania"

	# Overriden by CustomRotation
	# UniformRotation
	# {
	#    Period        208.94077099 # enforce sync rotation
	#    Inclination    74.90
	#    AscendingNode 167.43
	#    MeridianAngle 102.26
	# }

	Albedo         0.27
}

AltSurface "limit of knowledge" "Sol/Uranus/Titania"
{
	Texture "titania.*"
	OverlayTexture "titania-lok-mask.png"
}

"Oberon:Uranus IV" "Sol/Uranus"
{
	Texture "oberon.*"
	Radius   761.4

	CustomOrbit "oberon"

	# Overridden by CustomOrbit
	# EllipticalOrbit
	# {
	#    Period        13.463
	#    SemiMajorAxis  583600
	#    Eccentricity   0.0008
	#    Inclination    0.10
	#    MeanAnomaly    150
	# }

	BodyFrame { EquatorJ2000 {} }
	CustomRotation "iau-oberon"

	# Overriden by CustomRotation
	# UniformRotation
	# {
	#    Period        323.117567539 # enforce sync rotation
	#    Inclination    74.90
	#    AscendingNode 167.43
	#    MeridianAngle 173.23
	# }

	Albedo         0.23
}

AltSurface "limit of knowledge" "Sol/Uranus/Oberon"
{
	Texture "oberon.*"
	OverlayTexture "oberon-lok-mask.png"
}


